{
  "type": "FeatureCollection",
  "features": [
    {
      "type": "Feature",
      "properties": {
        "norad_id": 31420,
        "name": "FENGYUN 1C DEB",
        "group": "fengyun-1c-debris",
        "lat": 66.10346321994147,
        "lon": -120.69764473973554,
        "alt_km": 823.7331309602669,
        "timestamp": "2025-12-26T08:37:54.862504+00:00",
        "meta_object_name": "FENGYUN 1C DEB",
        "meta_object_id": "1999-025BTG",
        "meta_epoch": "2025-12-24T23:03:15.845184",
        "meta_mean_motion": 14.40861261,
        "meta_eccentricity": 0.01349187,
        "meta_inclination": 97.5586,
        "meta_ra_of_asc_node": 255.5032,
        "meta_arg_of_pericenter": 290.3751,
        "meta_mean_anomaly": 83.1637,
        "meta_ephemeris_type": 0,
        "meta_classification_type": "U",
        "meta_norad_cat_id": 31420,
        "meta_element_set_no": 999,
        "meta_rev_at_epoch": 65170,
        "meta_bstar": 0.00064552807,
        "meta_mean_motion_dot": 2.264e-05,
        "meta_mean_motion_ddot": 0,
        "tle_line1": "1 31420U 99025BTG 25358.96060006  .00002264  00000+0  64553-3 0  9994",
        "tle_line2": "2 31420  97.5586 255.5032 0134918 290.3751  83.1637 14.40861261651707"
      },
      "geometry": {
        "type": "Point",
        "coordinates": [
          -120.69764473973554,
          66.10346321994147
        ]
      }
    },
    {
      "type": "Feature",
      "properties": {
        "norad_id": 31422,
        "name": "FENGYUN 1C DEB",
        "group": "fengyun-1c-debris",
        "lat": -65.84111765992428,
        "lon": 156.83972575288084,
        "alt_km": 844.1563154728465,
        "timestamp": "2025-12-26T08:37:54.862515+00:00",
        "meta_object_name": "FENGYUN 1C DEB",
        "meta_object_id": "1999-025BTJ",
        "meta_epoch": "2025-12-25T04:32:49.257600",
        "meta_mean_motion": 14.09637595,
        "meta_eccentricity": 0.00336758,
        "meta_inclination": 98.7605,
        "meta_ra_of_asc_node": 355.8078,
        "meta_arg_of_pericenter": 264.7622,
        "meta_mean_anomaly": 167.559,
        "meta_ephemeris_type": 0,
        "meta_classification_type": "U",
        "meta_norad_cat_id": 31422,
        "meta_element_set_no": 999,
        "meta_rev_at_epoch": 95837,
        "meta_bstar": 0.00030191894,
        "meta_mean_motion_dot": 4.89e-06,
        "meta_mean_motion_ddot": 0,
        "tle_line1": "1 31422U 99025BTJ 25359.18945900  .00000489  00000+0  30192-3 0  9995",
        "tle_line2": "2 31422  98.7605 355.8078 0033675 264.7622 167.5590 14.09637595958372"
      },
      "geometry": {
        "type": "Point",
        "coordinates": [
          156.83972575288084,
          -65.84111765992428
        ]
      }
    },
    {
      "type": "Feature",
      "properties": {
        "norad_id": 31423,
        "name": "FENGYUN 1C DEB",
        "group": "fengyun-1c-debris",
        "lat": -62.106929363303934,
        "lon": -2.582002967635049,
        "alt_km": 843.3373973542411,
        "timestamp": "2025-12-26T08:37:54.862536+00:00",
        "meta_object_name": "FENGYUN 1C DEB",
        "meta_object_id": "1999-025BTK",
        "meta_epoch": "2025-12-25T16:03:20.256480",
        "meta_mean_motion": 14.229799,
        "meta_eccentricity": 0.00367635,
        "meta_inclination": 98.5847,
        "meta_ra_of_asc_node": 340.1629,
        "meta_arg_of_pericenter": 156.3859,
        "meta_mean_anomaly": 203.9017,
        "meta_ephemeris_type": 0,
        "meta_classification_type": "U",
        "meta_norad_cat_id": 31423,
        "meta_element_set_no": 999,
        "meta_rev_at_epoch": 97152,
        "meta_bstar": 0.00014479863,
        "meta_mean_motion_dot": 2.86e-06,
        "meta_mean_motion_ddot": 0,
        "tle_line1": "1 31423U 99025BTK 25359.66898445  .00000286  00000+0  14480-3 0  9997",
        "tle_line2": "2 31423  98.5847 340.1629 0036763 156.3859 203.9017 14.22979900971522"
      },
      "geometry": {
        "type": "Point",
        "coordinates": [
          -2.582002967635049,
          -62.106929363303934
        ]
      }
    },
    {
      "type": "Feature",
      "properties": {
        "norad_id": 31424,
        "name": "FENGYUN 1C DEB",
        "group": "fengyun-1c-debris",
        "lat": 58.13332637673345,
        "lon": 29.655845666785876,
        "alt_km": 791.6229448314461,
        "timestamp": "2025-12-26T08:37:54.862549+00:00",
        "meta_object_name": "FENGYUN 1C DEB",
        "meta_object_id": "1999-025BTL",
        "meta_epoch": "2025-12-26T01:32:08.801664",
        "meta_mean_motion": 14.08369116,
        "meta_eccentricity": 0.0094296,
        "meta_inclination": 98.4797,
        "meta_ra_of_asc_node": 43.2634,
        "meta_arg_of_pericenter": 67.8382,
        "meta_mean_anomaly": 293.2764,
        "meta_ephemeris_type": 0,
        "meta_classification_type": "U",
        "meta_norad_cat_id": 31424,
        "meta_element_set_no": 999,
        "meta_rev_at_epoch": 63358,
        "meta_bstar": 0.00025729,
        "meta_mean_motion_dot": 4.19e-06,
        "meta_mean_motion_ddot": 0,
        "tle_line1": "1 31424U 99025BTL 25360.06399076  .00000419  00000+0  25729-3 0  9996",
        "tle_line2": "2 31424  98.4797  43.2634 0094296  67.8382 293.2764 14.08369116633583"
      },
      "geometry": {
        "type": "Point",
        "coordinates": [
          29.655845666785876,
          58.13332637673345
        ]
      }
    },
    {
      "type": "Feature",
      "properties": {
        "norad_id": 31426,
        "name": "FENGYUN 1C DEB",
        "group": "fengyun-1c-debris",
        "lat": 66.48389839381466,
        "lon": 136.6488824481445,
        "alt_km": 874.9318146326632,
        "timestamp": "2025-12-26T08:37:54.862559+00:00",
        "meta_object_name": "FENGYUN 1C DEB",
        "meta_object_id": "1999-025BTN",
        "meta_epoch": "2025-12-24T16:38:35.634336",
        "meta_mean_motion": 13.9016565,
        "meta_eccentricity": 0.03242634,
        "meta_inclination": 98.5802,
        "meta_ra_of_asc_node": 155.4094,
        "meta_arg_of_pericenter": 153.1493,
        "meta_mean_anomaly": 224.4865,
        "meta_ephemeris_type": 0,
        "meta_classification_type": "U",
        "meta_norad_cat_id": 31426,
        "meta_element_set_no": 999,
        "meta_rev_at_epoch": 93739,
        "meta_bstar": 0.0020398597,
        "meta_mean_motion_dot": 3.82e-05,
        "meta_mean_motion_ddot": 0,
        "tle_line1": "1 31426U 99025BTN 25358.69346799  .00003820  00000+0  20399-2 0  9994",
        "tle_line2": "2 31426  98.5802 155.4094 0324263 153.1493 224.4865 13.90165650937392"
      },
      "geometry": {
        "type": "Point",
        "coordinates": [
          136.6488824481445,
          66.48389839381466
        ]
      }
    },
    {
      "type": "Feature",
      "properties": {
        "norad_id": 31427,
        "name": "FENGYUN 1C DEB",
        "group": "fengyun-1c-debris",
        "lat": 48.82396265814211,
        "lon": -59.944843626310366,
        "alt_km": 712.0011366722292,
        "timestamp": "2025-12-26T08:37:54.862570+00:00",
        "meta_object_name": "FENGYUN 1C DEB",
        "meta_object_id": "1999-025BTP",
        "meta_epoch": "2025-12-23T05:57:55.232352",
        "meta_mean_motion": 14.58870278,
        "meta_eccentricity": 0.00310487,
        "meta_inclination": 98.6704,
        "meta_ra_of_asc_node": 106.7623,
        "meta_arg_of_pericenter": 345.3085,
        "meta_mean_anomaly": 14.7208,
        "meta_ephemeris_type": 0,
        "meta_classification_type": "U",
        "meta_norad_cat_id": 31427,
        "meta_element_set_no": 999,
        "meta_rev_at_epoch": 97034,
        "meta_bstar": 0.0023695532,
        "meta_mean_motion_dot": 0.00011132,
        "meta_mean_motion_ddot": 0,
        "tle_line1": "1 31427U 99025BTP 25357.24855593  .00011132  00000+0  23696-2 0  9990",
        "tle_line2": "2 31427  98.6704 106.7623 0031048 345.3085  14.7208 14.58870278970347"
      },
      "geometry": {
        "type": "Point",
        "coordinates": [
          -59.944843626310366,
          48.82396265814211
        ]
      }
    },
    {
      "type": "Feature",
      "properties": {
        "norad_id": 31428,
        "name": "FENGYUN 1C DEB",
        "group": "fengyun-1c-debris",
        "lat": 51.56550895067263,
        "lon": 164.17749253801136,
        "alt_km": 702.2086886322841,
        "timestamp": "2025-12-26T08:37:54.862580+00:00",
        "meta_object_name": "FENGYUN 1C DEB",
        "meta_object_id": "1999-025BTQ",
        "meta_epoch": "2025-12-24T10:07:55.451712",
        "meta_mean_motion": 14.42065599,
        "meta_eccentricity": 0.00644202,
        "meta_inclination": 99.0396,
        "meta_ra_of_asc_node": 330.5542,
        "meta_arg_of_pericenter": 119.3559,
        "meta_mean_anomaly": 35.2408,
        "meta_ephemeris_type": 0,
        "meta_classification_type": "U",
        "meta_norad_cat_id": 31428,
        "meta_element_set_no": 999,
        "meta_rev_at_epoch": 97678,
        "meta_bstar": 0.00073759176,
        "meta_mean_motion_dot": 2.435e-05,
        "meta_mean_motion_ddot": 0,
        "tle_line1": "1 31428U 99025BTQ 25358.42216958  .00002435  00000+0  73759-3 0  9990",
        "tle_line2": "2 31428  99.0396 330.5542 0064420 119.3559  35.2408 14.42065599976781"
      },
      "geometry": {
        "type": "Point",
        "coordinates": [
          164.17749253801136,
          51.56550895067263
        ]
      }
    }
  ]
}